satname,norad_id,inclination_deg,eccentricity,mean_motion_rev_per_day,perigee_km,apogee_km,l1,l2
STARLINK-1234,45190,53.0403,0.0004976,15.73287108,346.16215925517736,352.85751338668524,1 45190U 20012N   26150.73485058  .00086508  00000+0  61173-3 0  9995,2 45190  53.0403 280.6434 0004976 217.0906 142.9768 15.73287108348750
STARLINK-1269,45197,53.1569,0.0002415,15.34165953,461.74673471369806,465.0511965851065,1 45197U 20012V   26150.84499270  .00055211  00000+0  16453-2 0  9992,2 45197  53.1569  17.2279 0002415 103.7098 256.4173 15.34165953347504
STARLINK-1154,45198,53.0427,5.45e-05,15.62990896,378.65483659665733,379.39136704775683,1 45198U 20012W   26150.54007815  .00048136  00000+0  52355-3 0  9990,2 45198  53.0427 335.3697 0000545 358.6390   1.4622 15.62990896348010
STARLINK-1199,45201,53.1561,0.0002394,15.34115427,461.9112822052957,465.1870815491775,1 45201U 20012Z   26150.81589532  .00050484  00000+0  15087-2 0  9995,2 45201  53.1561   1.6295 0002394 176.7121 183.3898 15.34115427347749
STARLINK-1209,45206,53.0392,0.0008018,15.64906213,368.095033582209,378.9219723107335,1 45206U 20012AE  26150.57707852  .00053063  00000+0  53365-3 0  9998,2 45206  53.0392 295.5249 0008018 203.0336 157.0320 15.64906213347684
STARLINK-1231,45212,53.041,0.0003707,15.27223081,481.57421011680344,486.6618860094368,1 45212U 20012AL  26150.82840912  .00039923  00000+0  14814-2 0  9992,2 45212  53.0410 356.5635 0003707  70.6625 289.4774 15.27223081347753
STARLINK-1271,45217,53.1561,0.0001453,15.34327962,461.9233555030587,463.91136590027963,1 45217U 20012AR  26150.81442207  .00054616  00000+0  16195-2 0  9991,2 45217  53.1561   1.7697 0001453 177.1631 182.9380 15.34327962347749
STARLINK-1191,45222,53.1557,0.0003341,15.38102119,449.4399830115135,454.00369468763165,1 45222U 20012AW  26149.90556322  .00065297  00000+0  17110-2 0  9994,2 45222  53.1557 339.2745 0003341 159.1639 200.9502 15.38102119347981
STARLINK-1212,45223,53.0404,0.000243,15.66209249,368.12347500940723,371.40295451378097,1 45223U 20012AX  26150.85714699  .00060063  00000+0  57305-3 0  9991,2 45223  53.0404 309.8326 0002430 116.4873 243.6391 15.66209249348461
STARLINK-1215,45225,53.1566,0.0001518,15.34397992,461.6707679583433,463.74764886721823,1 45225U 20012AZ  26150.81417984  .00054482  00000+0  16120-2 0  9993,2 45225  53.1566 336.0413 0001518 209.6524 150.4392 15.34397992348066
STARLINK-1221,45227,53.0652,0.0001835,15.44546256,431.46184473613357,433.9614261853467,1 45227U 20012BB  26150.63690529  .00018225  00000+0  39443-3 0  9992,2 45227  53.0652 240.4730 0001835 284.2162  75.8639 15.44546256349360
STARLINK-1222,45228,53.0538,0.0001139,15.54518593,402.779946811077,404.3248156521213,1 45228U 20012BC  26150.59563870  .00041341  00000+0  62040-3 0  9990,2 45228  53.0538 308.6263 0001139  12.3494 347.7544 15.54518593348344
STARLINK-1226,45229,53.1569,0.0002354,15.43045248,435.5234732786521,438.73209994018725,1 45229U 20012BD  26150.82402279  .00067858  00000+0  15096-2 0  9991,2 45229  53.1569 332.5435 0002354 202.5207 157.5696 15.43045248348055
STARLINK-1227,45230,53.1542,0.0002693,15.43103517,435.1209138385648,438.7915230460176,1 45230U 20012BE  26150.51062184  .00067355  00000+0  14956-2 0  9992,2 45230  53.1542 334.1443 0002693 195.7619 164.3303 15.43103517348124
STARLINK-1246,45235,53.1561,0.0002861,15.34254363,461.1788500583243,465.09342654806187,1 45235U 20012BK  26150.83335647  .00034218  00000+0  10239-2 0  9991,2 45235  53.1561  16.9117 0002861 158.8126 100.9429 15.34254363  5922
STARLINK-1270,45237,53.0413,0.0001351,15.60699815,384.7206307724364,386.54820180911975,1 45237U 20012BM  26150.83335647  .00160167  00000+0  18629-2 0  9997,2 45237  53.0413 311.0420 0001351 203.7409  86.3934 15.60699815  5889
STARLINK-1279,45360,53.0378,0.0008068,15.73386894,343.7977472949433,354.6530192365817,1 45360U 20019A   26150.71256824  .00090191  00000+0  63389-3 0  9990,2 45360  53.0378  55.5360 0008068  85.8441 274.3499 15.73386894343521
STARLINK-1301,45361,53.0375,0.0005691,15.75607802,339.0772228449823,346.72710962399105,1 45361U 20019B   26150.13152911  .00099433  00000+0  63435-3 0  9999,2 45361  53.0375  61.2065 0005691 105.9712 254.1934 15.75607802343403
STARLINK-1262,45366,53.1528,0.0004188,15.3313792,463.5904650466782,469.3234969651694,1 45366U 20019G   26150.36100078  .00055735  00000+0  17151-2 0  9996,2 45366  53.1528 145.5131 0004188  42.6146 317.5181 15.33137920342261
STARLINK-1273,45367,53.0434,0.0005827,15.55969246,395.3873796519056,403.28584740111,1 45367U 20019H   26150.34478316  .00105083  00000+0  14720-2 0  9999,2 45367  53.0434 122.8146 0005827  31.3289 328.8067 15.55969246342564
STARLINK-1277,45369,53.0417,0.000579,15.62670978,376.0323809646661,383.8582402803677,1 45369U 20019K   26150.83335647  .00168772  00000+0  18158-2 0  9997,2 45369  53.0417 114.8748 0005790  26.4977 259.2025 15.62670978  5997
STARLINK-1281,45370,53.1566,0.0005257,15.34036282,460.1877022104454,467.381298475907,1 45370U 20019L   26150.37782405  .00051469  00000+0  15412-2 0  9990,2 45370  53.1566 145.1183 0005257  41.2614 318.8785 15.34036282342279
STARLINK-1300,45374,53.1566,0.0004748,15.34456946,459.2860393427218,465.7819405147593,1 45374U 20019Q   26150.39244043  .00049494  00000+0  14633-2 0  9996,2 45374  53.1566 144.9795 0004748  54.0115 306.1327 15.34456946342276
STARLINK-1302,45375,53.0446,0.000559,15.66351801,365.5819484149997,373.1256431246693,1 45375U 20019R   26150.15723046  .00068184  00000+0  64511-3 0  9994,2 45375  53.0446 114.4685 0005590  41.8850 318.2591 15.66351801342668
STARLINK-1304,45376,53.0419,0.0005923,15.61680201,378.79885759727404,386.8078675507795,1 45376U 20019S   26150.13269127  .00073186  00000+0  83129-3 0  9992,2 45376  53.0419 115.6084 0005923  52.4737 307.6813 15.61680201342648
STARLINK-1305,45377,53.0378,0.0001734,15.70367941,356.6766132989842,359.0126517291401,1 45377U 20019T   26150.83477075  .00074982  00000+0  60145-3 0  9991,2 45377  53.0378  91.2345 0001734 159.8437 200.2649 15.70367941343051
STARLINK-1319,45379,53.0382,0.0004245,15.75897972,339.2243803283891,344.92984210881514,1 45379U 20019V   26150.83199191  .00093839  00000+0  59196-3 0  9999,2 45379  53.0382  83.2879 0004245  65.0174 295.1285 15.75897972343165
STARLINK-1266,45383,53.0455,0.0001429,15.64930085,372.47504110702357,374.40464176830574,1 45383U 20019Z   26150.29509930  .00068875  00000+0  69001-3 0  9998,2 45383  53.0455  99.9720 0001429 104.5640 255.5533 15.64930085342872
STARLINK-1267,45384,53.0445,0.0007385,15.64334584,370.16585968637264,380.1404692592987,1 45384U 20019AA  26150.26011452  .00114024  00000+0  11582-2 0  9991,2 45384  53.0445  91.3389 0007385  80.7533 279.4316 15.64334584342991
STARLINK-1272,45386,53.0398,0.0008141,15.68422563,357.9251259887915,368.901718386197,1 45386U 20019AC  26149.03036576  .00072502  00000+0  62953-3 0  9993,2 45386  53.0398  76.4574 0008141  62.9319 297.2527 15.68422563343098
STARLINK-1274,45387,53.0206,0.000866,15.60188572,381.253199648635,392.97061075244255,1 45387U 20019AD  26150.83335647  .00115480  00000+0  13770-2 0  9990,2 45387  53.0206  66.3130 0008660 102.5694  88.4477 15.60188572  5760
STARLINK-1280,45388,53.0373,0.0004953,15.76618272,336.702631586817,343.35764795547493,1 45388U 20019AE  26150.78268669  .00100568  00000+0  61376-3 0  9991,2 45388  53.0373  75.9453 0004953  83.0774 277.0809 15.76618272343248
STARLINK-1283,45389,53.0406,0.0003874,15.69934486,356.4744343809962,361.69443354803207,1 45389U 20019AF  26150.77554171  .00070178  00000+0  57363-3 0  9991,2 45389  53.0406  67.0157 0003874  94.0811 266.0649 15.69934486343389
STARLINK-1284,45390,53.0406,0.0004892,15.68780237,359.0912250297206,365.68615536500965,1 45390U 20019AG  26150.14964790  .00077663  00000+0  66448-3 0  9996,2 45390  53.0406  93.9138 0004892  21.9375 338.1849 15.68780237342949
STARLINK-1297,45395,53.0411,0.000658,15.67243435,362.3562060243603,371.232535708421,1 45395U 20019AM  26150.85672907  .00064060  00000+0  58512-3 0  9995,2 45395  53.0411  89.3609 0006580  33.6229 326.5203 15.67243435342258
STARLINK-1307,45397,53.0519,0.000277,15.55894184,397.6771712042337,401.4320123460775,1 45397U 20019AP  26150.27355387  .00048236  00000+0  68650-3 0  9994,2 45397  53.0519  97.4075 0002770  71.3206 288.8105 15.55894184342731
STARLINK-1255,45399,53.0351,0.0005693,15.64875276,369.75372521680674,377.44125010445623,1 45399U 20019AR  26150.74588098  .00054081  00000+0  54479-3 0  9994,2 45399  53.0351  63.5388 0005693  89.5284 270.6383 15.64875276343236
STARLINK-1260,45404,53.1542,0.0005656,15.36792208,451.73715572194124,459.4674816392326,1 45404U 20019AW  26150.30639163  .00067198  00000+0  18357-2 0  9990,2 45404  53.1542 108.3353 0005656  56.7031 303.4514 15.36792208342491
STARLINK-1263,45405,53.157,0.0004634,15.34096306,460.4355679596001,466.776495401361,1 45405U 20019AX  26150.26133508  .00055676  00000+0  16623-2 0  9990,2 45405  53.1570 109.6354 0004634  70.5944 289.5559 15.34096306342475
STARLINK-1265,45406,53.1549,0.0005071,15.37242891,450.80188181567974,457.73130554038926,1 45406U 20019AY  26150.88609177  .00050917  00000+0  13764-2 0  9995,2 45406  53.1549 105.6234 0005071  49.4000 310.7445 15.37242891342587
STARLINK-1278,45408,53.0395,0.0006939,15.68075689,359.72893269574706,369.086236069953,1 45408U 20019BA  26150.12304037  .00075783  00000+0  66723-3 0  9993,2 45408  53.0395  91.9669 0006939  54.4162 305.7499 15.68075689342693
STARLINK-1296,45412,53.1553,0.0006102,15.37476693,449.40520321019994,457.74262320868,1 45412U 20019BE  26150.86185201  .00061571  00000+0  16472-2 0  9994,2 45412  53.1553 105.4440 0006102  47.3612 312.7906 15.37476693342581
STARLINK-1309,45414,53.0605,0.0006577,15.6729509,362.2101262755268,371.08221405756376,1 45414U 20019BG  26150.83956476  .00061123  00000+0  55757-3 0  9996,2 45414  53.0605  82.3018 0006577  31.5652 328.5757 15.67295090342873
